OBJECT_NAME,OBJECT_ID,EPOCH,MEAN_MOTION,ECCENTRICITY,INCLINATION,RA_OF_ASC_NODE,ARG_OF_PERICENTER,MEAN_ANOMALY,EPHEMERIS_TYPE,CLASSIFICATION_TYPE,NORAD_CAT_ID,ELEMENT_SET_NO,REV_AT_EPOCH,BSTAR,MEAN_MOTION_DOT,MEAN_MOTION_DDOT
COSMOS 2531 (RODNIK-S 17),2018-097B,2026-06-18T06:49:37.179840,12.42912579,.00176937,82.5180,222.6586,56.0741,304.2018,0,U,43752,999,34244,-.26102617E-3,-.26E-6,0
COSMOS 2532 (RODNIK-S 18),2018-097C,2026-06-18T07:30:20.374848,12.42909767,.00190989,82.5124,221.4265,57.7989,302.4939,0,U,43753,999,34241,-.56079915E-4,.2E-7,0
MINXSS-2,2018-099A,2026-06-18T03:02:33.070560,15.46949569,.00066452,97.4531,245.4391,251.0553,108.9976,0,U,43758,999,41427,.56417038E-3,.28425E-3,0
SIRION PATHFINDER-2,2018-099B,2026-06-18T02:33:39.682656,15.14554484,.00071732,97.4247,218.1424,301.3763,58.6767,0,U,43759,999,41276,.1973572E-3,.3576E-4,0
AISTECHSAT 2,2018-099L,2026-06-18T01:54:20.915136,15.15456525,.0003143,97.4288,217.0940,305.8950,54.1991,0,U,43768,999,41241,.24420681E-3,.4554E-4,0
FOX-1CLIFF (AO-95),2018-099N,2026-06-18T03:01:57.284544,15.26728638,.00078742,97.4378,229.3690,354.3313,5.7835,0,U,43770,999,41336,.35966179E-3,.939E-4,0
RANGE-A,2018-099R,2026-06-18T02:29:17.818080,15.13395664,.00097295,97.3959,211.6561,354.1489,5.9627,0,U,43773,999,41263,.18005803E-3,.3153E-4,0
SNUSAT-2,2018-099AA,2026-06-18T02:56:09.287808,15.21849428,.00085754,97.4053,222.4919,294.5412,65.4930,0,U,43782,999,41317,.27427429E-3,.6171E-4,0
SNUGLITE,2018-099AC,2026-06-18T03:02:10.444128,15.27196601,.00011837,97.3862,223.3974,282.5149,77.5957,0,U,43784,999,41346,.35712226E-3,.945E-4,0
ITASAT,2018-099AE,2026-06-18T03:23:45.460896,15.19068297,.00119802,97.4024,220.6342,356.9860,3.1301,0,U,43786,999,41305,.27436815E-3,.5695E-4,0
EAGLET-I,2018-099AJ,2026-06-18T02:39:53.017920,15.12945174,.00105781,97.4225,218.7553,351.1614,8.9430,0,U,43790,999,41247,.16542938E-3,.2855E-4,0
ESEO,2018-099AL,2026-06-18T01:04:55.629120,15.04251317,.00112181,97.3976,206.3963,337.1026,22.9699,0,U,43792,999,41193,.12344744E-3,.1661E-4,0
THEA,2018-099AQ,2026-06-18T04:19:06.373632,15.35041019,.00058699,97.4440,238.8817,278.1133,81.9444,0,U,43796,999,41284,.38821418E-3,.13131E-3,0
ASTROCAST 0.1,2018-099AS,2026-06-18T03:58:15.180672,15.49595514,.00051732,97.4369,247.6934,200.9761,159.1279,0,U,43798,999,41458,.57695857E-3,.3188E-3,0
JY1SAT (JO-97),2018-099AX,2026-06-18T03:21:08.262144,15.33679040,.00043897,97.4123,231.9773,257.5077,102.5675,0,U,43803,999,41377,.43793924E-3,.14196E-3,0
SUOMI-100,2018-099AY,2026-06-18T02:56:52.079136,15.28433243,.00083777,97.4180,229.5127,274.8695,85.1588,0,U,43804,999,41356,.38267446E-3,.10531E-3,0
CENTAURI-1,2018-099BD,2026-06-18T03:07:03.711648,15.16373436,.00129958,97.4217,220.8293,330.4431,29.6066,0,U,43809,999,41264,.19891207E-3,.3802E-4,0
GLOBAL-2,2018-099BG,2026-06-18T01:40:23.408832,15.08674999,.00069888,97.3550,205.5466,140.1258,220.0486,0,U,43812,999,41204,.14481769E-3,.221E-4,0
SEAHAWK-1,2018-099BQ,2026-06-18T02:55:35.227200,15.22819931,.00066807,97.3950,221.5932,311.7686,48.2979,0,U,43820,999,41267,.27050033E-3,.6261E-4,0
SAUDISAT 5A,2018-102A,2026-06-18T06:40:25.296384,15.28057540,.00110799,97.3065,230.8380,125.7665,234.4607,0,U,43831,999,41584,.16325381E-3,.4401E-4,0
SAUDISAT 5B,2018-102C,2026-06-18T05:33:00.660960,15.28313855,.00117328,97.3172,233.8638,128.0478,232.1822,0,U,43833,999,41595,.16278188E-3,.4423E-4,0
ISAT,2018-111D,2026-06-18T05:58:29.100288,15.65460026,.00011065,97.5883,104.5522,149.2131,210.9193,0,U,43879,999,41133,.79238192E-3,.79626E-3,0
UWE-4,2018-111E,2026-06-18T06:00:53.776224,15.46181512,.00053009,97.5854,97.6902,337.5186,22.5830,0,U,43880,999,41094,.50222648E-3,.24613E-3,0
D-STAR ONE (SPARROW),2018-111F,2026-06-18T06:36:01.524096,15.74731509,.00043753,97.6116,110.2173,112.2723,247.9005,0,U,43881,999,41154,.90290879E-3,.134065E-2,0
JILIN-1 09,2019-005B,2026-06-18T07:10:14.230848,15.20522291,.00037817,97.4742,264.2516,92.2582,267.9087,0,U,43943,999,40931,.16193783E-3,.3472E-4,0
JILIN-1 10,2019-005E,2026-06-18T05:47:47.606208,15.25731322,.00065595,97.4789,268.0455,274.4865,85.5624,0,U,43946,999,40947,.1728982E-3,.4338E-4,0
EGYPTSAT-A (MISRSAT-A),2019-008A,2026-06-18T07:09:57.890016,14.72309785,.00012974,98.0189,234.0439,98.3416,261.7939,0,U,44047,999,39340,.99742678E-4,.581E-5,0
EMISAT,2019-018A,2026-06-18T07:44:29.139072,14.43687539,.00177793,98.4643,228.1170,211.0607,148.9534,0,U,44078,999,38022,.48644806E-4,.121E-5,0
