COSMOS 2531 (RODNIK-S *)
1 43752U 18097B   26169.28445810 -.00000026  00000+0 -26103-3 0  9996
2 43752  82.5180 222.6586 0017693  56.0741 304.2018 12.42912579342444
COSMOS 2532 (RODNIK-S *)
1 43753U 18097C   26169.31273582  .00000002  00000+0 -56080-4 0  9997
2 43753  82.5124 221.4265 0019098  57.7989 302.4939 12.42909767342411
MINXSS-2                
1 43758U 18099A   26169.12677165  .00028425  00000+0  56417-3 0  9999
2 43758  97.4531 245.4391 0006645 251.0553 108.9976 15.46949569414274
SIRION PATHFINDER-2     
1 43759U 18099B   26169.10670929  .00003576  00000+0  19736-3 0  9992
2 43759  97.4247 218.1424 0007173 301.3763  58.6767 15.14554484412766
AISTECHSAT 2            
1 43768U 18099L   26169.07940874  .00004554  00000+0  24421-3 0  9991
2 43768  97.4288 217.0940 0003143 305.8950  54.1991 15.15456525412412
FOX-1CLIFF (AO-95)      
1 43770U 18099N   26169.12635746  .00009390  00000+0  35966-3 0  9998
2 43770  97.4378 229.3690 0007874 354.3313   5.7835 15.26728638413363
RANGE-A                 
1 43773U 18099R   26169.10367845  .00003153  00000+0  18006-3 0  9998
2 43773  97.3959 211.6561 0009729 354.1489   5.9627 15.13395664412639
SNUSAT-2                
1 43782U 18099AA  26169.12232972  .00006171  00000+0  27427-3 0  9992
2 43782  97.4053 222.4919 0008575 294.5412  65.4930 15.21849428413172
SNUGLITE                
1 43784U 18099AC  26169.12650977  .00009450  00000+0  35712-3 0  9992
2 43784  97.3862 223.3974 0001183 282.5149  77.5957 15.27196601413463
ITASAT                  
1 43786U 18099AE  26169.14149839  .00005695  00000+0  27437-3 0  9998
2 43786  97.4024 220.6342 0011980 356.9860   3.1301 15.19068297413050
EAGLET-I                
1 43790U 18099AJ  26169.11103030  .00002855  00000+0  16543-3 0  9994
2 43790  97.4225 218.7553 0010578 351.1614   8.9430 15.12945174412478
ESEO                    
1 43792U 18099AL  26169.04508830  .00001661  00000+0  12345-3 0  9995
2 43792  97.3976 206.3963 0011218 337.1026  22.9699 15.04251317411936
THEA                    
1 43796U 18099AQ  26169.17993488  .00013131  00000+0  38821-3 0  9992
2 43796  97.4440 238.8817 0005869 278.1133  81.9444 15.35041019412847
ASTROCAST 0.1           
1 43798U 18099AS  26169.16545348  .00031880  00000+0  57696-3 0  9993
2 43798  97.4369 247.6934 0005173 200.9761 159.1279 15.49595514414581
JY1SAT (JO-97)          
1 43803U 18099AX  26169.13967896  .00014196  00000+0  43794-3 0  9998
2 43803  97.4123 231.9773 0004389 257.5077 102.5675 15.33679040413771
SUOMI-100               
1 43804U 18099AY  26169.12282499  .00010531  00000+0  38267-3 0  9995
2 43804  97.4180 229.5127 0008377 274.8695  85.1588 15.28433243413563
CENTAURI-1              
1 43809U 18099BD  26169.12990407  .00003802  00000+0  19891-3 0  9990
2 43809  97.4217 220.8293 0012995 330.4431  29.6066 15.16373436412641
GLOBAL-2                
1 43812U 18099BG  26169.06971538  .00002210  00000+0  14482-3 0  9994
2 43812  97.3550 205.5466 0006988 140.1258 220.0486 15.08674999412040
SEAHAWK-1               
1 43820U 18099BQ  26169.12193550  .00006261  00000+0  27050-3 0  9995
2 43820  97.3950 221.5932 0006680 311.7686  48.2979 15.22819931412678
SAUDISAT 5A             
1 43831U 18102A   26169.27807056  .00004401  00000+0  16325-3 0  9998
2 43831  97.3065 230.8380 0011079 125.7665 234.4607 15.28057540415840
SAUDISAT 5B             
1 43833U 18102C   26169.23125765  .00004423  00000+0  16278-3 0  9997
2 43833  97.3172 233.8638 0011732 128.0478 232.1822 15.28313855415954
ISAT                    
1 43879U 18111D   26169.24894792  .00079626  00000+0  79238-3 0  9993
2 43879  97.5883 104.5522 0001106 149.2131 210.9193 15.65460026411333
UWE-4                   
1 43880U 18111E   26169.25062241  .00024613  00000+0  50223-3 0  9991
2 43880  97.5854  97.6902 0005300 337.5186  22.5830 15.46181512410949
D-STAR ONE (SPARROW)    
1 43881U 18111F   26169.27501764  .00134065  00000+0  90291-3 0  9994
2 43881  97.6116 110.2173 0004375 112.2723 247.9005 15.74731509411542
JILIN-1 09              
1 43943U 19005B   26169.29877582  .00003472  00000+0  16194-3 0  9999
2 43943  97.4742 264.2516 0003781  92.2582 267.9087 15.20522291409316
JILIN-1 10              
1 43946U 19005E   26169.24152322  .00004338  00000+0  17290-3 0  9995
2 43946  97.4789 268.0455 0006559 274.4865  85.5624 15.25731322409478
EGYPTSAT-A (MISRSAT-A)  
1 44047U 19008A   26169.29858669  .00000581  00000+0  99743-4 0  9993
2 44047  98.0189 234.0439 0001297  98.3416 261.7939 14.72309785393403
EMISAT                  
1 44078U 19018A   26169.32255948  .00000121  00000+0  48645-4 0  9998
2 44078  98.4643 228.1170 0017779 211.0607 148.9534 14.43687539380227
